SatCatId,ObjectName,LaunchYear,OrbitalPeriod,LaunchMass,StatusCode,Inclination,Status,UcsData,OrbitClassEstimated,LaunchSiteCountry,Owner,UseType,Purpose,LaunchVehicleClass,TLE1,TLE2,MeanMotion,Eccentricity,OrbitClass
57416,STARLINK-30224,2023,95.84,-1.0,+,43.0,Active,0,LEO,USA,USA,Unknown,Unknown,Unknown,1 57416U 23102N   25231.42486631  .00000568  00000+0  57114-4 0  9998,2 57416  43.0025 267.6559 0001451 277.3215  82.7463 15.02536411115811,15.02536411,0.0001451,LEO
57417,STARLINK-30043,2023,95.84,-1.0,+,43.0,Active,0,LEO,USA,USA,Unknown,Unknown,Unknown,1 57417U 23102P   25230.42103975  .00000122  00000+0  24116-4 0  9997,2 57417  43.0021 273.0235 0001596 272.3384  87.7276 15.02535838115664,15.02535838,0.0001596,LEO
57418,STARLINK-30221,2023,95.84,-1.0,+,43.0,Active,0,LEO,USA,USA,Unknown,Unknown,Unknown,1 57418U 23102Q   25230.82323531  .00000278  00000+0  35640-4 0  9990,2 57418  43.0021 270.8829 0001405 268.6553  91.4129 15.02537077115727,15.02537077,0.0001405,LEO
57422,OBJECT B,2023,89.94,-1.0,+,96.36,Active,0,LEO,PRC,China,Unknown,Unknown,Unknown,1 57422U 23103B   25230.86083668  .00017690  12479-6  30831-4 0  9997,2 57422  96.3602 289.6970 0028347 134.8188 225.5405 16.01356447118826,16.01356447,0.0028347,LEO
57424,OBJECT A,2023,94.08,-1.0,+,97.31,Active,0,LEO,PRC,China,Unknown,Unknown,Unknown,1 57424U 23104A   25231.48197033  .00009861  00000+0  33439-3 0  9998,2 57424  97.3091 299.1699 0010694 115.5950 244.6397 15.30682386115828,15.30682386,0.0010694,LEO
57425,OBJECT B,2023,92.61,-1.0,+,97.3,Active,0,LEO,PRC,China,Unknown,Unknown,Unknown,1 57425U 23104B   25231.47887668  .00028903  00000+0  43282-3 0  9993,2 57425  97.3020 307.0864 0007665  97.9883 262.2241 15.54897175116360,15.54897175,0.0007665,LEO
57426,OBJECT C,2023,94.51,-1.0,+,97.3,Active,0,LEO,PRC,China,Unknown,Unknown,Unknown,1 57426U 23104C   25231.52720194  .00011218  00000+0  47053-3 0  9991,2 57426  97.3049 298.0652 0002487 163.9411 196.1906 15.23649415115779,15.23649415,0.0002487,LEO
57430,STARLINK-30189,2023,95.84,-1.0,+,43.0,Active,0,LEO,USA,USA,Unknown,Unknown,Unknown,1 57430U 23105A   25230.85631078  .00001898  00000+0  15560-3 0  9995,2 57430  43.0024 284.2700 0001241 276.5011  83.5690 15.02526437115000,15.02526437,0.0001241,LEO
57432,STARLINK-30188,2023,95.84,-1.0,+,43.0,Active,0,LEO,USA,USA,Unknown,Unknown,Unknown,1 57432U 23105C   25230.84963692  .00000466  00000+0  49576-4 0  9991,2 57432  43.0023 284.2184 0001336 279.3565  80.7126 15.02535485115014,15.02535485,0.0001336,LEO
57433,STARLINK-30105,2023,94.27,-1.0,+,43.0,Active,0,LEO,USA,USA,Unknown,Unknown,Unknown,1 57433U 23105D   25230.97961348 -.00000839  00000+0 -20987-4 0  9993,2 57433  42.9998  95.6293 0001078 270.1759  89.8970 15.27577592117332,15.27577592,0.0001078,LEO
57434,STARLINK-30102,2023,95.84,-1.0,+,43.0,Active,0,LEO,USA,USA,Unknown,Unknown,Unknown,1 57434U 23105E   25230.84297620  .00000392  00000+0  44102-4 0  9992,2 57434  43.0033 284.1632 0001232 269.4220  90.6481 15.02535339114995,15.02535339,0.0001232,LEO
57436,STARLINK-30183,2023,94.53,-1.0,P,42.99,Active,0,LEO,USA,USA,Unknown,Unknown,Unknown,1 57436U 23105G   25231.10512141  .00058402  00000+0  23876-2 0  9990,2 57436  42.9969 262.2875 0018188  59.6255 300.6390 15.23404753115334,15.23404753,0.0018188,LEO
57437,STARLINK-30237,2023,95.84,-1.0,+,43.0,Active,0,LEO,USA,USA,Unknown,Unknown,Unknown,1 57437U 23105H   25231.43128889 -.00001011  00000+0 -59766-4 0  9994,2 57437  43.0010 280.8394 0000799 207.4046 152.6755 15.02534058115379,15.02534058,7.99e-05,LEO
57438,STARLINK-30158,2023,95.84,-1.0,+,43.0,Active,0,LEO,USA,USA,Unknown,Unknown,Unknown,1 57438U 23105J   25230.83631699  .00000485  00000+0  50975-4 0  9991,2 57438  43.0029 284.1172 0001716 272.1731  87.8914 15.02539432115042,15.02539432,0.0001716,LEO
57440,STARLINK-30159,2023,95.84,-1.0,+,43.0,Active,0,LEO,USA,USA,Unknown,Unknown,Unknown,1 57440U 23105L   25230.49726999  .00000589  00000+0  58677-4 0  9996,2 57440  43.0029 285.8724 0001616 280.3395  79.7265 15.02537307114836,15.02537307,0.0001616,LEO
57441,STARLINK-30160,2023,95.84,-1.0,+,43.0,Active,0,LEO,USA,USA,Unknown,Unknown,Unknown,1 57441U 23105M   25230.49395658  .00017450  00000+0  13065-2 0  9996,2 57441  43.0027 285.8493 0001389 245.1192 114.9506 15.02452993114836,15.02452993,0.0001389,LEO
57442,STARLINK-30146,2023,95.84,-1.0,+,43.0,Active,0,LEO,USA,USA,Unknown,Unknown,Unknown,1 57442U 23105N   25231.48777687  .00000031  00000+0  17397-4 0  9994,2 57442  43.0024 280.4038 0001482 272.2743  87.7930 15.02538367115218,15.02538367,0.0001482,LEO
57443,STARLINK-30197,2023,95.84,-1.0,+,43.0,Active,0,LEO,USA,USA,Unknown,Unknown,Unknown,1 57443U 23105P   25230.42079867  .00000669  00000+0  64562-4 0  9996,2 57443  43.0029 286.1593 0001461 272.4506  87.6169 15.02536004114981,15.02536004,0.0001461,LEO
57444,STARLINK-30181,2023,95.84,-1.0,+,43.01,Active,0,LEO,USA,USA,Unknown,Unknown,Unknown,1 57444U 23105Q   25231.20522899  .00001528  00000+0  12813-3 0  9998,2 57444  43.0035 281.7253 0001227 278.9895  81.0809 15.02542334115179,15.02542334,0.0001227,LEO
57445,STARLINK-30215,2023,95.84,-1.0,+,43.0,Active,0,LEO,USA,USA,Unknown,Unknown,Unknown,1 57445U 23105R   25231.47557016 -.00000377  00000+0 -12826-4 0  9995,2 57445  43.0032 280.3114 0001015 288.3864  71.6868 15.02533408114951,15.02533408,0.0001015,LEO
57446,STARLINK-30162,2023,95.84,-1.0,+,43.0,Active,0,LEO,USA,USA,Unknown,Unknown,Unknown,1 57446U 23105S   25231.13570897  .00000848  00000+0  77831-4 0  9999,2 57446  43.0026 269.3273 0001307 270.9891  89.0802 15.02547017115255,15.02547017,0.0001307,LEO
57447,STARLINK-30178,2023,95.84,-1.0,+,43.0,Active,0,LEO,USA,USA,Unknown,Unknown,Unknown,1 57447U 23105T   25231.47445631  .00000612  00000+0  60400-4 0  9997,2 57447  43.0026 280.3052 0001322 274.0130  86.0562 15.02537332115150,15.02537332,0.0001322,LEO
57448,STARLINK-30196,2023,95.84,-1.0,+,43.0,Active,0,LEO,USA,USA,Unknown,Unknown,Unknown,1 57448U 23105U   25230.86616926 -.00000023  00000+0  13344-4 0  9999,2 57448  43.0029 283.4811 0001384 270.1527  89.9157 15.02534389114897,15.02534389,0.0001384,LEO
57449,STARLINK-30225,2023,95.84,-1.0,+,43.0,Active,0,LEO,USA,USA,Unknown,Unknown,Unknown,1 57449U 23105V   25231.19522691  .00001229  00000+0  10601-3 0  9992,2 57449  43.0034 281.6478 0001454 272.9520  87.1156 15.02539294115209,15.02539294,0.0001454,LEO
57450,STARLINK-30217,2023,95.84,-1.0,+,43.01,Active,0,LEO,USA,USA,Unknown,Unknown,Unknown,1 57450U 23105W   25231.11908684 -.00002201  00000+0 -14800-3 0  9994,2 57450  43.0027 269.2536 0001301 267.1383  92.9310 15.02515597115255,15.02515597,0.0001301,LEO
57451,STARLINK-30216,2023,95.84,-1.0,+,43.0,Active,0,LEO,USA,USA,Unknown,Unknown,Unknown,1 57451U 23105X   25230.85951046  .00000481  00000+0  50660-4 0  9996,2 57451  43.0030 283.4439 0001342 275.7498  84.3191 15.02535075114891,15.02535075,0.0001342,LEO
57452,YAOGAN-36 05A,2023,94.56,-1.0,+,35.0,Active,0,LEO,PRC,China,Unknown,Unknown,Unknown,1 57452U 23106A   25231.21512132  .00009330  00000+0  38959-3 0  9996,2 57452  35.0019 156.6668 0002517 252.1040 107.9401 15.22892635115080,15.22892635,0.0002517,LEO
57454,YAOGAN-36 05B,2023,94.92,-1.0,+,34.99,Active,0,LEO,PRC,China,Unknown,Unknown,Unknown,1 57454U 23106C   25231.24957449  .00006198  00000+0  30557-3 0  9990,2 57454  34.9950 163.4414 0016655 286.1496  73.7383 15.17157467114976,15.17157467,0.0016655,LEO
57456,YAOGAN-36 05C,2023,94.91,-1.0,+,34.99,Active,0,LEO,PRC,China,Unknown,Unknown,Unknown,1 57456U 23106E   25231.24593026  .00005454  00000+0  26923-3 0  9995,2 57456  34.9924 163.3318 0007516 253.0878 106.9010 15.17236338114975,15.17236338,0.0007516,LEO
57457,STARLINK-30165,2023,95.84,-1.0,+,43.01,Active,0,LEO,USA,USA,Unknown,Unknown,Unknown,1 57457U 23107A   25230.42252341  .00000123  00000+0  24149-4 0  9995,2 57457  43.0053   3.7336 0001281 263.2464  96.8232 15.02535187114526,15.02535187,0.0001281,LEO
57458,STARLINK-30140,2023,95.84,-1.0,+,43.0,Active,0,LEO,USA,USA,Unknown,Unknown,Unknown,1 57458U 23107B   25231.34988572  .00000340  00000+0  40270-4 0  9994,2 57458  43.0039 358.6495 0001291 268.6821  91.3874 15.02533296114662,15.02533296,0.0001291,LEO
57459,STARLINK-30185,2023,95.84,-1.0,+,43.0,Active,0,LEO,USA,USA,Unknown,Unknown,Unknown,1 57459U 23107C   25231.41304078 -.00000748  00000+0 -40298-4 0  9990,2 57459  43.0045 358.2642 0001541 273.8869  86.1797 15.02545864114668,15.02545864,0.0001541,LEO
57460,STARLINK-30077,2023,95.84,-1.0,+,43.0,Active,0,LEO,USA,USA,Unknown,Unknown,Unknown,1 57460U 23107D   25230.67845153 -.00001166  00000+0 -71244-4 0  9993,2 57460  43.0041   2.2117 0001277 265.3715  94.6981 15.02543698114573,15.02543698,0.0001277,LEO
57461,STARLINK-30229,2023,95.84,-1.0,+,43.01,Active,0,LEO,USA,USA,Unknown,Unknown,Unknown,1 57461U 23107E   25231.35654235 -.00000139  00000+0  47759-5 0  9992,2 57461  43.0059 358.6956 0001262 271.9720  88.0977 15.02536857114655,15.02536857,0.0001262,LEO
57462,STARLINK-30088,2023,95.84,-1.0,+,43.0,Active,0,LEO,USA,USA,Unknown,Unknown,Unknown,1 57462U 23107F   25231.40637334 -.00000295  00000+0 -67479-5 0  9995,2 57462  43.0029 358.2099 0001325 267.8783  92.1908 15.02534259114665,15.02534259,0.0001325,LEO
57463,STARLINK-30091,2023,95.84,-1.0,+,43.0,Active,0,LEO,USA,USA,Unknown,Unknown,Unknown,1 57463U 23107G   25231.33323466  .00000124  00000+0  24294-4 0  9992,2 57463  43.0021 358.5229 0001617 267.1376  92.9281 15.02535326114669,15.02535326,0.0001617,LEO
57465,STARLINK-30116,2023,95.84,-1.0,+,43.0,Active,0,LEO,USA,USA,Unknown,Unknown,Unknown,1 57465U 23107J   25230.66956793 -.00000128  00000+0  55933-5 0  9994,2 57465  43.0046   2.1453 0001241 266.0185  94.0516 15.02532622114578,15.02532622,0.0001241,LEO
57467,STARLINK-30092,2023,95.84,-1.0,+,43.01,Active,0,LEO,USA,USA,Unknown,Unknown,Unknown,1 57467U 23107L   25230.66181324  .00001112  00000+0  97401-4 0  9994,2 57467  43.0058   2.0867 0002311 274.3341  85.7237 15.02527262114645,15.02527262,0.0002311,LEO
